[{"OBJECT_NAME":"STARLINK-31087","OBJECT_ID":"2023-200J","EPOCH":"2026-03-08T16:18:11.069856","MEAN_MOTION":15.26741848,"ECCENTRICITY":9.134e-5,"INCLINATION":42.9986,"RA_OF_ASC_NODE":173.9308,"ARG_OF_PERICENTER":268.8991,"MEAN_ANOMALY":91.1755,"EPHEMERIS_TYPE":0,"CLASSIFICATION_TYPE":"U","NORAD_CAT_ID":58597,"ELEMENT_SET_NO":999,"REV_AT_EPOCH":12335,"BSTAR":6.3485287e-5,"MEAN_MOTION_DOT":1.444e-5,"MEAN_MOTION_DDOT":0},{"OBJECT_NAME":"OTTER","OBJECT_ID":"2025-009Q","EPOCH":"2026-03-09T17:21:07.902432","MEAN_MOTION":15.27809545,"ECCENTRICITY":0.00035728,"INCLINATION":97.4065,"RA_OF_ASC_NODE":151.3812,"ARG_OF_PERICENTER":310.771,"MEAN_ANOMALY":49.3219,"EPHEMERIS_TYPE":0,"CLASSIFICATION_TYPE":"U","NORAD_CAT_ID":62623,"ELEMENT_SET_NO":999,"REV_AT_EPOCH":6372,"BSTAR":0.00045151206,"MEAN_MOTION_DOT":0.00012198,"MEAN_MOTION_DDOT":0}]
